[{"OBJECT_NAME":"STARLINK-35348","OBJECT_ID":"2025-224Y","EPOCH":"2026-02-13T16:41:06.633888","MEAN_MOTION":15.30206599,"ECCENTRICITY":0.00011987,"INCLINATION":53.1584,"RA_OF_ASC_NODE":122.5798,"ARG_OF_PERICENTER":93.9241,"MEAN_ANOMALY":266.1897,"EPHEMERIS_TYPE":0,"CLASSIFICATION_TYPE":"U","NORAD_CAT_ID":65904,"ELEMENT_SET_NO":999,"REV_AT_EPOCH":2115,"BSTAR":0.00049012149,"MEAN_MOTION_DOT":0.00014188,"MEAN_MOTION_DDOT":0},{"OBJECT_NAME":"STARLINK-35380","OBJECT_ID":"2025-224Z","EPOCH":"2026-02-13T14:06:26.135136","MEAN_MOTION":15.30199883,"ECCENTRICITY":0.00011924,"INCLINATION":53.1578,"RA_OF_ASC_NODE":123.3356,"ARG_OF_PERICENTER":113.9575,"MEAN_ANOMALY":246.1551,"EPHEMERIS_TYPE":0,"CLASSIFICATION_TYPE":"U","NORAD_CAT_ID":65905,"ELEMENT_SET_NO":999,"REV_AT_EPOCH":2113,"BSTAR":0.00083865361,"MEAN_MOTION_DOT":0.00024561,"MEAN_MOTION_DDOT":0},{"OBJECT_NAME":"STARLINK-35385","OBJECT_ID":"2025-224AA","EPOCH":"2026-02-13T16:56:18.477024","MEAN_MOTION":15.3017465,"ECCENTRICITY":0.00011927,"INCLINATION":53.158,"RA_OF_ASC_NODE":122.644,"ARG_OF_PERICENTER":92.2078,"MEAN_ANOMALY":267.9059,"EPHEMERIS_TYPE":0,"CLASSIFICATION_TYPE":"U","NORAD_CAT_ID":65906,"ELEMENT_SET_NO":999,"REV_AT_EPOCH":2118,"BSTAR":0.0010762671,"MEAN_MOTION_DOT":0.00031628,"MEAN_MOTION_DDOT":0},{"OBJECT_NAME":"STARLINK-35347","OBJECT_ID":"2025-224AB","EPOCH":"2026-02-13T12:05:02.783616","MEAN_MOTION":15.30253612,"ECCENTRICITY":0.00014129,"INCLINATION":53.1577,"RA_OF_ASC_NODE":123.5149,"ARG_OF_PERICENTER":63.4432,"MEAN_ANOMALY":296.6714,"EPHEMERIS_TYPE":0,"CLASSIFICATION_TYPE":"U","NORAD_CAT_ID":65907,"ELEMENT_SET_NO":999,"REV_AT_EPOCH":2115,"BSTAR":0.0021101083,"MEAN_MOTION_DOT":0.0006277,"MEAN_MOTION_DDOT":0},{"OBJECT_NAME":"STARLINK-35329","OBJECT_ID":"2025-224AC","EPOCH":"2026-02-13T15:31:22.554912","MEAN_MOTION":15.30194291,"ECCENTRICITY":0.00012281,"INCLINATION":53.1575,"RA_OF_ASC_NODE":122.9875,"ARG_OF_PERICENTER":68.1972,"MEAN_ANOMALY":291.916,"EPHEMERIS_TYPE":0,"CLASSIFICATION_TYPE":"U","NORAD_CAT_ID":65908,"ELEMENT_SET_NO":999,"REV_AT_EPOCH":2118,"BSTAR":0.0008771955,"MEAN_MOTION_DOT":0.00025706,"MEAN_MOTION_DDOT":0},{"OBJECT_NAME":"STARLINK-35387","OBJECT_ID":"2025-224AD","EPOCH":"2026-02-13T11:34:47.091072","MEAN_MOTION":15.30166505,"ECCENTRICITY":0.00013847,"INCLINATION":53.1593,"RA_OF_ASC_NODE":124.0943,"ARG_OF_PERICENTER":74.2399,"MEAN_ANOMALY":285.8755,"EPHEMERIS_TYPE":0,"CLASSIFICATION_TYPE":"U","NORAD_CAT_ID":65909,"ELEMENT_SET_NO":999,"REV_AT_EPOCH":2111,"BSTAR":-7.9315062e-5,"MEAN_MOTION_DOT":-2.705e-5,"MEAN_MOTION_DDOT":0},{"OBJECT_NAME":"STARLINK-35523","OBJECT_ID":"2025-225A","EPOCH":"2026-02-13T21:34:37.786944","MEAN_MOTION":15.30215015,"ECCENTRICITY":6.109e-5,"INCLINATION":53.1595,"RA_OF_ASC_NODE":276.3255,"ARG_OF_PERICENTER":126.2599,"MEAN_ANOMALY":233.8458,"EPHEMERIS_TYPE":0,"CLASSIFICATION_TYPE":"U","NORAD_CAT_ID":65910,"ELEMENT_SET_NO":999,"REV_AT_EPOCH":2076,"BSTAR":0.00076022386,"MEAN_MOTION_DOT":0.00022234,"MEAN_MOTION_DDOT":0},{"OBJECT_NAME":"STARLINK-35160","OBJECT_ID":"2025-225B","EPOCH":"2026-02-13T21:52:52.102560","MEAN_MOTION":15.30202927,"ECCENTRICITY":0.00013762,"INCLINATION":53.1584,"RA_OF_ASC_NODE":276.4073,"ARG_OF_PERICENTER":107.3352,"MEAN_ANOMALY":252.7799,"EPHEMERIS_TYPE":0,"CLASSIFICATION_TYPE":"U","NORAD_CAT_ID":65911,"ELEMENT_SET_NO":999,"REV_AT_EPOCH":2076,"BSTAR":0.00045949285,"MEAN_MOTION_DOT":0.00013275,"MEAN_MOTION_DDOT":0},{"OBJECT_NAME":"STARLINK-35508","OBJECT_ID":"2025-225C","EPOCH":"2026-02-13T21:39:11.150496","MEAN_MOTION":15.30192587,"ECCENTRICITY":0.00013036,"INCLINATION":53.1585,"RA_OF_ASC_NODE":276.3497,"ARG_OF_PERICENTER":71.7317,"MEAN_ANOMALY":288.3825,"EPHEMERIS_TYPE":0,"CLASSIFICATION_TYPE":"U","NORAD_CAT_ID":65912,"ELEMENT_SET_NO":999,"REV_AT_EPOCH":2076,"BSTAR":0.00066782049,"MEAN_MOTION_DOT":0.00019467,"MEAN_MOTION_DDOT":0},{"OBJECT_NAME":"STARLINK-35472","OBJECT_ID":"2025-225D","EPOCH":"2026-02-13T21:30:04.359456","MEAN_MOTION":15.30209197,"ECCENTRICITY":0.00010265,"INCLINATION":53.1589,"RA_OF_ASC_NODE":276.3071,"ARG_OF_PERICENTER":116.8353,"MEAN_ANOMALY":243.2753,"EPHEMERIS_TYPE":0,"CLASSIFICATION_TYPE":"U","NORAD_CAT_ID":65913,"ELEMENT_SET_NO":999,"REV_AT_EPOCH":2076,"BSTAR":0.00080560978,"MEAN_MOTION_DOT":0.00023583,"MEAN_MOTION_DDOT":0},{"OBJECT_NAME":"STARLINK-35524","OBJECT_ID":"2025-225E","EPOCH":"2026-02-13T22:04:51.697056","MEAN_MOTION":15.30208585,"ECCENTRICITY":0.0001019,"INCLINATION":53.1573,"RA_OF_ASC_NODE":275.748,"ARG_OF_PERICENTER":78.7982,"MEAN_ANOMALY":281.3133,"EPHEMERIS_TYPE":0,"CLASSIFICATION_TYPE":"U","NORAD_CAT_ID":65914,"ELEMENT_SET_NO":999,"REV_AT_EPOCH":2077,"BSTAR":0.0011142736,"MEAN_MOTION_DOT":0.00032797,"MEAN_MOTION_DDOT":0},{"OBJECT_NAME":"STARLINK-35539","OBJECT_ID":"2025-225F","EPOCH":"2026-02-13T15:01:42.620736","MEAN_MOTION":15.30199323,"ECCENTRICITY":0.0001661,"INCLINATION":53.1586,"RA_OF_ASC_NODE":277.4908,"ARG_OF_PERICENTER":82.9723,"MEAN_ANOMALY":277.1467,"EPHEMERIS_TYPE":0,"CLASSIFICATION_TYPE":"U","NORAD_CAT_ID":65915,"ELEMENT_SET_NO":999,"REV_AT_EPOCH":2072,"BSTAR":0.00066517631,"MEAN_MOTION_DOT":0.00019393,"MEAN_MOTION_DDOT":0},{"OBJECT_NAME":"STARLINK-35521","OBJECT_ID":"2025-225G","EPOCH":"2026-02-13T01:01:18.392736","MEAN_MOTION":15.30190306,"ECCENTRICITY":0.00015343,"INCLINATION":53.1592,"RA_OF_ASC_NODE":280.2277,"ARG_OF_PERICENTER":75.0078,"MEAN_ANOMALY":285.1093,"EPHEMERIS_TYPE":0,"CLASSIFICATION_TYPE":"U","NORAD_CAT_ID":65916,"ELEMENT_SET_NO":999,"REV_AT_EPOCH":2063,"BSTAR":0.00091368283,"MEAN_MOTION_DOT":0.00026791,"MEAN_MOTION_DDOT":0},{"OBJECT_NAME":"STARLINK-35478","OBJECT_ID":"2025-225H","EPOCH":"2026-02-13T21:28:33.356064","MEAN_MOTION":15.30211716,"ECCENTRICITY":0.00011343,"INCLINATION":53.1597,"RA_OF_ASC_NODE":276.2997,"ARG_OF_PERICENTER":117.9364,"MEAN_ANOMALY":242.1752,"EPHEMERIS_TYPE":0,"CLASSIFICATION_TYPE":"U","NORAD_CAT_ID":65917,"ELEMENT_SET_NO":999,"REV_AT_EPOCH":2076,"BSTAR":0.00100934,"MEAN_MOTION_DOT":0.00029665,"MEAN_MOTION_DDOT":0},{"OBJECT_NAME":"STARLINK-35516","OBJECT_ID":"2025-225J","EPOCH":"2026-02-13T22:33:43.959168","MEAN_MOTION":15.30182564,"ECCENTRICITY":0.00015724,"INCLINATION":53.1591,"RA_OF_ASC_NODE":275.8709,"ARG_OF_PERICENTER":96.5336,"MEAN_ANOMALY":263.5844,"EPHEMERIS_TYPE":0,"CLASSIFICATION_TYPE":"U","NORAD_CAT_ID":65918,"ELEMENT_SET_NO":999,"REV_AT_EPOCH":2077,"BSTAR":0.00045244063,"MEAN_MOTION_DOT":0.00013057,"MEAN_MOTION_DDOT":0},{"OBJECT_NAME":"STARLINK-35519","OBJECT_ID":"2025-225K","EPOCH":"2026-02-13T22:00:01.999584","MEAN_MOTION":15.30192747,"ECCENTRICITY":0.00014167,"INCLINATION":53.157,"RA_OF_ASC_NODE":275.7291,"ARG_OF_PERICENTER":84.5522,"MEAN_ANOMALY":274.5208,"EPHEMERIS_TYPE":0,"CLASSIFICATION_TYPE":"U","NORAD_CAT_ID":65919,"ELEMENT_SET_NO":999,"REV_AT_EPOCH":587,"BSTAR":-4.2282637e-5,"MEAN_MOTION_DOT":-1.611e-5,"MEAN_MOTION_DDOT":0}]
