STARLINK-35348          
1 65904U 25224Y   26044.69521567  .00014188  00000+0  49012-3 0  9996
2 65904  53.1584 122.5798 0001198  93.9241 266.1897 15.30206599 21151
STARLINK-35380          
1 65905U 25224Z   26044.58780249  .00024561  00000+0  83865-3 0  9999
2 65905  53.1578 123.3356 0001192 113.9575 246.1551 15.30199883 21131
STARLINK-35385          
1 65906U 25224AA  26044.70576941  .00031628  00000+0  10763-2 0  9994
2 65906  53.1580 122.6440 0001192  92.2078 267.9059 15.30174650 21182
STARLINK-35347          
1 65907U 25224AB  26044.50350444  .00062770  00000+0  21101-2 0  9991
2 65907  53.1577 123.5149 0001412  63.4432 296.6714 15.30253612 21154
STARLINK-35329          
1 65908U 25224AC  26044.64678883  .00025706  00000+0  87720-3 0  9995
2 65908  53.1575 122.9875 0001228  68.1972 291.9160 15.30194291 21181
STARLINK-35387          
1 65909U 25224AD  26044.48248948 -.00002705  00000+0 -79315-4 0  9991
2 65909  53.1593 124.0943 0001384  74.2399 285.8755 15.30166505 21117
STARLINK-35523          
1 65910U 25225A   26044.89904846  .00022234  00000+0  76022-3 0  9993
2 65910  53.1595 276.3255 0000610 126.2599 233.8458 15.30215015 20763
STARLINK-35160          
1 65911U 25225B   26044.91171415  .00013275  00000+0  45949-3 0  9994
2 65911  53.1584 276.4073 0001376 107.3352 252.7799 15.30202927 20764
STARLINK-35508          
1 65912U 25225C   26044.90221239  .00019467  00000+0  66782-3 0  9991
2 65912  53.1585 276.3497 0001303  71.7317 288.3825 15.30192587 20765
STARLINK-35472          
1 65913U 25225D   26044.89588379  .00023583  00000+0  80561-3 0  9996
2 65913  53.1589 276.3071 0001026 116.8353 243.2753 15.30209197 20767
STARLINK-35524          
1 65914U 25225E   26044.92004279  .00032797  00000+0  11143-2 0  9999
2 65914  53.1573 275.7480 0001019  78.7982 281.3133 15.30208585 20770
STARLINK-35539          
1 65915U 25225F   26044.62618774  .00019393  00000+0  66518-3 0  9992
2 65915  53.1586 277.4908 0001661  82.9723 277.1467 15.30199323 20729
STARLINK-35521          
1 65916U 25225G   26044.04257399  .00026791  00000+0  91368-3 0  9992
2 65916  53.1592 280.2277 0001534  75.0078 285.1093 15.30190306 20639
STARLINK-35478          
1 65917U 25225H   26044.89483051  .00029665  00000+0  10093-2 0  9990
2 65917  53.1597 276.2997 0001134 117.9364 242.1752 15.30211716 20767
STARLINK-35516          
1 65918U 25225J   26044.94009212  .00013057  00000+0  45244-3 0  9995
2 65918  53.1591 275.8709 0001572  96.5336 263.5844 15.30182564 20773
STARLINK-35519          
1 65919U 25225K   26044.91668981 -.00001611  00000+0 -42283-4 0  9993
2 65919  53.1570 275.7291 0001416  84.5522 274.5208 15.30192747  5871
